NORAD_CAT_ID,OBJECT_NAME,OBJECT_TYPE,EPOCH,MEAN_MOTION,ECCENTRICITY,INCLINATION,RA_OF_ASC_NODE,ARG_OF_PERICENTER,MEAN_ANOMALY,BSTAR,MEAN_MOTION_DOT,MEAN_MOTION_DDOT,TLE_LINE0,TLE_LINE1,TLE_LINE2,SEMIMAJOR_AXIS,PERIOD,APOGEE,PERIGEE,DECAYED
54204.0,STARLINK-5241,PAYLOAD,2022-11-22 22:00:00,15.73221961,0.0003086,53.2175,15.8232,8.5759,116.0378,-0.00038225,-0.00053991,0.0,0 STARLINK-5241,1 54204U 22141AZ  22326.91667824 -.00053991  00000-0 -38225-3 0  9995,2 54204  53.2175  15.8232 0003086   8.5759 116.0378 15.73221961  1309,6727.833000000001,91.532,351.774,347.621,0.0
54204.0,STARLINK-5241,PAYLOAD,2022-11-23 06:00:00,15.73188093,0.0003168999999999,53.2176,14.174,14.1019,199.4352,0.00020908,0.00028812,0.0,0 STARLINK-5241,1 54204U 22141AZ  22327.25001157  .00028812  00000-0  20908-3 0  9995,2 54204  53.2176  14.1740 0003169  14.1019 199.4352 15.73188093  4386,6727.929,91.534,351.926,347.662,0.0
54204.0,STARLINK-5241,PAYLOAD,2022-11-23 14:00:01,15.73201795,0.0003442,53.2174,12.5262,11.8895,290.5697,-6.3369e-05,-9.511e-05,0.0,0 STARLINK-5241,1 54204U 22141AZ  22327.58334491 -.00009511  00000-0 -63369-4 0  9997,2 54204  53.2174  12.5262 0003442  11.8895 290.5697 15.73201795  1304,6727.89,91.533,352.071,347.439,0.0
54204.0,STARLINK-5241,PAYLOAD,2022-11-23 22:00:00,15.73160208,0.0003208,53.2173,10.8747,12.1956,19.1965,0.00048764,0.0006827,0.0,0 STARLINK-5241,1 54204U 22141AZ  22327.91667824  .00068270  00000-0  48764-3 0  9999,2 54204  53.2173  10.8747 0003208  12.1956  19.1965 15.73160208  4493,6728.009,91.535,352.032,347.715,0.0
54204.0,STARLINK-5241,PAYLOAD,2022-11-24 14:00:01,15.73038498,0.0003671,53.2167,7.5777,19.3246,189.9234,0.0012040999999999,0.00170694,0.0,0 STARLINK-5241,1 54204U 22141AZ  22328.58334491  .00170694  00000-0  12041-2 0  9996,2 54204  53.2167   7.5777 0003671  19.3246 189.9234 15.73038498  4598,6728.356,91.543,352.691,347.751,0.0
54204.0,STARLINK-5241,PAYLOAD,2022-11-24 22:00:00,15.73161669,0.0003381,53.2169,5.9264,18.1978,279.8558,0.0009073,0.0012849,0.0,0 STARLINK-5241,1 54204U 22141AZ  22328.91667824  .00128490  00000-0  90730-3 0  9991,2 54204  53.2169   5.9264 0003381  18.1978 279.8558 15.73161669  1301,6728.004,91.535,352.144,347.595,0.0
54204.0,STARLINK-5241,PAYLOAD,2022-11-25 06:00:00,15.73277488,0.0003407,53.2171,4.2773,16.9893,10.0095,-0.00052868,-0.00074439,0.0,0 STARLINK-5241,1 54204U 22141AZ  22329.25001157 -.00074439  00000-0 -52868-3 0  9995,2 54204  53.2171   4.2773 0003407  16.9893  10.0095 15.73277488  4707,6727.674,91.529,351.831,347.247,0.0
54204.0,STARLINK-5241,PAYLOAD,2022-11-25 14:00:01,15.73216323,0.000364,53.2168,2.629,14.7637,101.2297,0.00067871,0.00095816,0.0,0 STARLINK-5241,1 54204U 22141AZ  22329.58334491  .00095816  00000-0  67871-3 0  9991,2 54204  53.2168   2.6290 0003640  14.7637 101.2297 15.73216323  4753,6727.849,91.532,352.163,347.265,0.0
54204.0,STARLINK-5241,PAYLOAD,2022-11-25 22:00:00,15.73296553,0.0003347,53.2168,0.9772,13.0483,191.9423,-0.00051848,-0.00073085,0.0,0 STARLINK-5241,1 54204U 22141AZ  22329.91667824 -.00073085  00000-0 -51848-3 0  9990,2 54204  53.2168   0.9772 0003347  13.0483 191.9423 15.73296553  1302,6727.62,91.528,351.737,347.233,0.0
54204.0,STARLINK-5241,PAYLOAD,2022-11-26 06:00:00,15.73222257,0.0003419,53.2167,359.3285,10.9017,283.1058,-1.3173e-05,-2.474e-05,0.0,0 STARLINK-5241,1 54204U 22141AZ  22330.25001157 -.00002474  00000-0 -13173-4 0  9994,2 54204  53.2167 359.3285 0003419  10.9017 283.1058 15.73222257  4851,6727.831999999999,91.532,351.997,347.396,0.0
54204.0,STARLINK-5241,PAYLOAD,2022-11-26 14:00:01,15.73234239,0.0003632,53.2162,357.6799,7.3219,15.6285,3.5939e-05,4.431e-05,0.0,0 STARLINK-5241,1 54204U 22141AZ  22330.58334491  .00004431  00000-0  35939-4 0  9997,2 54204  53.2162 357.6799 0003632   7.3219  15.6285 15.73234239  1308,6727.7980000000025,91.531,352.106,347.219,0.0
54204.0,STARLINK-5241,PAYLOAD,2022-11-26 22:00:00,15.73196702,0.0003314,53.2165,356.0282,5.0516,106.8897,-0.00021559,-0.00030775,0.0,0 STARLINK-5241,1 54204U 22141AZ  22330.91667824 -.00030775  00000-0 -21559-3 0  9997,2 54204  53.2165 356.0282 0003314   5.0516 106.8897 15.73196702  1307,6727.905,91.533,351.999,347.54,0.0
54204.0,STARLINK-5241,PAYLOAD,2022-11-27 06:00:00,15.73187678,0.00035,53.2168,354.3796,7.6274,193.2322,-0.00041795,-0.00058862,0.0,0 STARLINK-5241,1 54204U 22141AZ  22331.25001157 -.00058862  00000-0 -41795-3 0  9997,2 54204  53.2168 354.3796 0003500   7.6274 193.2322 15.73187678  5014,6727.93,91.534,352.15,347.441,0.0
54204.0,STARLINK-5241,PAYLOAD,2022-11-27 14:00:01,15.73142269,0.0003724,53.2166,352.731,8.3952,281.3483,0.00052255,0.00073195,0.0,0 STARLINK-5241,1 54204U 22141AZ  22331.58334491  .00073195  00000-0  52255-3 0  9990,2 54204  53.2166 352.7310 0003724   8.3952 281.3483 15.73142269  5064,6728.06,91.537,352.43,347.4190000000001,0.0
54204.0,STARLINK-5241,PAYLOAD,2022-11-27 22:00:00,15.73181092,0.0003478999999999,53.2167,351.0796,9.0724,9.5603,0.00015778,0.00021565,0.0,0 STARLINK-5241,1 54204U 22141AZ  22331.91667824  .00021565  00000-0  15778-3 0  9999,2 54204  53.2167 351.0796 0003479   9.0724   9.5603 15.73181092  1301,6727.949000000001,91.534,352.155,347.473,0.0
54204.0,STARLINK-5241,PAYLOAD,2022-11-28 06:00:00,15.73185664,0.0003594,53.2165,349.4315,8.4364,99.1209,8.7707e-06,6.07e-06,0.0,0 STARLINK-5241,1 54204U 22141AZ  22332.25001157  .00000607  00000-0  87707-5 0  9995,2 54204  53.2165 349.4315 0003594   8.4364  99.1209 15.73185664  5173,6727.936,91.534,352.219,347.3830000000001,0.0
54204.0,STARLINK-5241,PAYLOAD,2022-11-28 22:00:01,15.73231898,0.0003468,53.2163,346.131,8.0413,277.4479,0.00030537,0.00042521,0.0,0 STARLINK-5241,1 54204U 22141AZ  22332.91668981  .00042521  00000-0  30537-3 0  9990,2 54204  53.2163 346.1310 0003468   8.0413 277.4479 15.73231898  5273,6727.804,91.531,352.00199999999984,347.336,0.0
54204.0,STARLINK-5241,PAYLOAD,2022-11-29 06:00:00,15.73267721,0.0003604,53.2166,344.4829,7.0407,7.3695,-0.00083432,-0.00116496,0.0,0 STARLINK-5241,1 54204U 22141AZ  22333.25001157 -.00116496  00000-0 -83432-3 0  9991,2 54204  53.2166 344.4829 0003604   7.0407   7.3695 15.73267721  5337,6727.7019999999975,91.529,351.992,347.142,0.0
54204.0,STARLINK-5241,PAYLOAD,2022-11-29 14:00:01,15.73196314,0.0003812,53.2165,342.8337,6.153,97.278,-0.00028394,-0.00040294,0.0,0 STARLINK-5241,1 54204U 22141AZ  22333.58335648 -.00040294  00000-0 -28394-3 0  9990,2 54204  53.2165 342.8337 0003812   6.1530  97.2780 15.73196314  1305,6727.906,91.533,352.335,347.206,0.0
54204.0,STARLINK-5241,PAYLOAD,2022-11-29 22:00:00,15.73146499,0.0003573,53.2164,341.1825,9.1433,183.1372,0.0007274,0.00102507,0.0,0 STARLINK-5241,1 54204U 22141AZ  22333.91667824  .00102507  00000-0  72740-3 0  9999,2 54204  53.2164 341.1825 0003573   9.1433 183.1372 15.73146499  5436,6728.0480000000025,91.536,352.31699999999995,347.509,0.0
54204.0,STARLINK-5241,PAYLOAD,2022-11-30 14:00:01,15.73219539,0.0003901,53.2159,337.8833,6.956,3.2315,-0.00020461,-0.00029277,0.0,0 STARLINK-5241,1 54204U 22141AZ  22334.58335648 -.00029277  00000-0 -20461-3 0  9996,2 54204  53.2159 337.8833 0003901   6.9560   3.2315 15.73219539  5549,6727.839,91.532,352.329,347.08,0.0
54204.0,STARLINK-5241,PAYLOAD,2022-11-30 22:00:00,15.73051786,0.0003548,53.2166,336.2290000000001,6.5362,92.5641,0.0012978,0.0018443,0.0,0 STARLINK-5241,1 54204U 22141AZ  22334.91667824  .00184430  00000-0  12978-2 0  9991,2 54204  53.2166 336.2290 0003548   6.5362  92.5641 15.73051786  5596,6728.318,91.542,352.57,347.796,0.0
54204.0,STARLINK-5241,PAYLOAD,2022-12-01 14:00:01,15.73230033,0.0003813,53.2159,332.9368,4.8248,272.0949,-0.00019035,-0.00027298,0.0,0 STARLINK-5241,1 54204U 22141AZ  22335.58334491 -.00027298  00000-0 -19035-3 0  9998,2 54204  53.2159 332.9368 0003813   4.8248 272.0949 15.73230033  1301,6727.81,91.531,352.24,347.1090000000001,0.0
54204.0,STARLINK-5241,PAYLOAD,2022-12-01 20:00:01,15.73199253,0.0003647,53.216,331.6983,4.8833,248.8257,0.00047804,0.00067021,0.0,0 STARLINK-5241,1 54204U 22141AZ  22335.83335648  .00067021  00000-0  47804-3 0  9992,2 54204  53.2160 331.6983 0003647   4.8833 248.8257 15.73199253  5739,6727.897,91.533,352.216,347.309,0.0
54204.0,STARLINK-5241,PAYLOAD,2022-12-01 22:00:00,15.7322715,0.0003634,53.2159,331.2857,6.2603,359.6141,0.00012507,0.0001699,0.0,0 STARLINK-5241,1 54204U 22141AZ  22335.91667824  .00016990  00000-0  12507-3 0  9996,2 54204  53.2159 331.2857 0003634   6.2603 359.6141 15.73227150  1300,6727.818,91.532,352.12800000000016,347.23800000000006,0.0
54204.0,STARLINK-5241,PAYLOAD,2022-12-02 06:00:00,15.73385506,0.0003626,53.2153,329.6380000000001,10.5563,84.3318,0.0025641,0.00378969,0.0,0 STARLINK-5241,1 54204U 22141AZ  22336.25001157  .00378969  00000-0  25641-2 0  9994,2 54204  53.2153 329.6380 0003626  10.5563  84.3318 15.73385506  5807,6727.366,91.522,351.671,346.792,0.0
54204.0,STARLINK-5241,PAYLOAD,2022-12-02 14:00:01,15.73111684,0.0003804,53.2149,327.9885,9.9342,173.7354,0.00025476,0.00035158,0.0,0 STARLINK-5241,1 54204U 22141AZ  22336.58334491  .00035158  00000-0  25476-3 0  9997,2 54204  53.2149 327.9885 0003804   9.9342 173.7354 15.73111684  5850,6728.147,91.538,352.571,347.45300000000015,0.0
54204.0,STARLINK-5241,PAYLOAD,2022-12-02 22:00:00,15.73109278,0.0003585,53.215,326.3375,12.0096,260.4881,0.0006648,0.00093381,0.0,0 STARLINK-5241,1 54204U 22141AZ  22336.91667824  .00093381  00000-0  66480-3 0  9995,2 54204  53.2150 326.3375 0003585  12.0096 260.4881 15.73109278  1307,6728.154,91.538,352.431,347.607,0.0
54204.0,STARLINK-5241,PAYLOAD,2022-12-03 14:00:01,15.73241824,0.0003849,53.2151,323.04,12.428,77.8416,-0.00014955,-0.00021606,0.0,0 STARLINK-5241,1 54204U 22141AZ  22337.58334491 -.00021606  00000-0 -14955-3 0  9993,2 54204  53.2151 323.0400 0003849  12.4280  77.8416 15.73241824  6014,6727.776,91.531,352.23,347.051,0.0
